{"fetched_at":"2026-07-10T18:07:53.733Z","source":"https://celestrak.org/NORAD/elements/gp.php?GROUP=planet&FORMAT=JSON","constellation":"pelican","records":[{"OBJECT_NAME":"PELICAN-1","OBJECT_ID":"2023-174AS","EPOCH":"2026-07-09T06:19:46.621056","CLASSIFICATION_TYPE":"U","MEAN_MOTION":15.72288396,"ECCENTRICITY":0.00015876,"INCLINATION":97.3979,"RA_OF_ASC_NODE":291.9778,"ARG_OF_PERICENTER":140.4897,"MEAN_ANOMALY":219.6482,"EPHEMERIS_TYPE":0,"NORAD_CAT_ID":58296,"ELEMENT_SET_NO":999,"REV_AT_EPOCH":14963,"BSTAR":0.000070985464,"MEAN_MOTION_DOT":0.00009237,"MEAN_MOTION_DDOT":0},{"OBJECT_NAME":"PELICAN-2","OBJECT_ID":"2025-009Y","EPOCH":"2026-07-09T04:38:26.267712","CLASSIFICATION_TYPE":"U","MEAN_MOTION":15.40630366,"ECCENTRICITY":0.00022635,"INCLINATION":97.2213,"RA_OF_ASC_NODE":280.8272,"ARG_OF_PERICENTER":130.4618,"MEAN_ANOMALY":229.6826,"EPHEMERIS_TYPE":0,"NORAD_CAT_ID":62631,"ELEMENT_SET_NO":999,"REV_AT_EPOCH":8294,"BSTAR":0.000002200913,"MEAN_MOTION_DOT":9e-8,"MEAN_MOTION_DDOT":0},{"OBJECT_NAME":"PELICAN-3","OBJECT_ID":"2025-188A","EPOCH":"2026-07-10T03:59:46.596192","CLASSIFICATION_TYPE":"U","MEAN_MOTION":15.40988618,"ECCENTRICITY":0.00017162,"INCLINATION":97.1983,"RA_OF_ASC_NODE":266.9739,"ARG_OF_PERICENTER":106.385,"MEAN_ANOMALY":253.7585,"EPHEMERIS_TYPE":0,"NORAD_CAT_ID":65315,"ELEMENT_SET_NO":999,"REV_AT_EPOCH":4885,"BSTAR":0.0001483582,"MEAN_MOTION_DOT":0.00006031,"MEAN_MOTION_DDOT":0},{"OBJECT_NAME":"PELICAN-4","OBJECT_ID":"2025-188B","EPOCH":"2026-07-10T04:24:51.962400","CLASSIFICATION_TYPE":"U","MEAN_MOTION":15.40957945,"ECCENTRICITY":0.00008706,"INCLINATION":97.1997,"RA_OF_ASC_NODE":267.1461,"ARG_OF_PERICENTER":109.1636,"MEAN_ANOMALY":250.9706,"EPHEMERIS_TYPE":0,"NORAD_CAT_ID":65316,"ELEMENT_SET_NO":999,"REV_AT_EPOCH":4885,"BSTAR":0.00014596694,"MEAN_MOTION_DOT":0.00005927,"MEAN_MOTION_DDOT":0},{"OBJECT_NAME":"PELICAN-5","OBJECT_ID":"2025-276B","EPOCH":"2026-07-10T06:00:02.000160","CLASSIFICATION_TYPE":"U","MEAN_MOTION":15.32123997,"ECCENTRICITY":0.00023767,"INCLINATION":97.4132,"RA_OF_ASC_NODE":266.2135,"ARG_OF_PERICENTER":9.0145,"MEAN_ANOMALY":204.2846,"EPHEMERIS_TYPE":0,"NORAD_CAT_ID":66667,"ELEMENT_SET_NO":999,"REV_AT_EPOCH":584,"BSTAR":0.00038010537,"MEAN_MOTION_DOT":0.00011717,"MEAN_MOTION_DDOT":0},{"OBJECT_NAME":"PELICAN-6","OBJECT_ID":"2025-276AP","EPOCH":"2026-07-08T18:29:17.236896","CLASSIFICATION_TYPE":"U","MEAN_MOTION":15.31077896,"ECCENTRICITY":0.00032361,"INCLINATION":97.3784,"RA_OF_ASC_NODE":264.7842,"ARG_OF_PERICENTER":48.6984,"MEAN_ANOMALY":311.4536,"EPHEMERIS_TYPE":0,"NORAD_CAT_ID":66703,"ELEMENT_SET_NO":999,"REV_AT_EPOCH":3383,"BSTAR":0.00010638544,"MEAN_MOTION_DOT":0.00003117,"MEAN_MOTION_DDOT":0},{"OBJECT_NAME":"PELICAN-7","OBJECT_ID":"2026-100AP","EPOCH":"2026-07-08T16:36:52.687872","CLASSIFICATION_TYPE":"U","MEAN_MOTION":15.23481001,"ECCENTRICITY":0.00033143,"INCLINATION":97.3907,"RA_OF_ASC_NODE":87.2405,"ARG_OF_PERICENTER":94.4001,"MEAN_ANOMALY":265.7614,"EPHEMERIS_TYPE":0,"NORAD_CAT_ID":69017,"ELEMENT_SET_NO":999,"REV_AT_EPOCH":1008,"BSTAR":0.000063924856,"MEAN_MOTION_DOT":0.00001454,"MEAN_MOTION_DDOT":0},{"OBJECT_NAME":"PELICAN-9","OBJECT_ID":"2026-100AR","EPOCH":"2026-07-10T06:00:02.000160","CLASSIFICATION_TYPE":"U","MEAN_MOTION":15.21973081,"ECCENTRICITY":0.00019161,"INCLINATION":97.3781,"RA_OF_ASC_NODE":88.6197,"ARG_OF_PERICENTER":20.4396,"MEAN_ANOMALY":28.1504,"EPHEMERIS_TYPE":0,"NORAD_CAT_ID":69019,"ELEMENT_SET_NO":999,"REV_AT_EPOCH":496,"BSTAR":0.00041443459,"MEAN_MOTION_DOT":0.00009391,"MEAN_MOTION_DDOT":0}]}
